CZ-2D R/B               
1 28738U 05024B   25324.80621155  .00022667  00000+0  38098-3 0  9996
2 28738  97.3645 331.7028 0008071  69.1092 291.1024 15.51735579122856
ALOS (DAICHI)           
1 28931U 06002A   25324.42861708  .00001632  00000+0  28430-3 0  9994
2 28931  98.1058 276.0789 0000788  63.9156 296.2131 14.69387232 57436
H-2A R/B                
1 28932U 06002B   25324.64814054  .00009891  00000+0  52985-3 0  9998
2 28932  98.2310  97.6058 0054450 251.9018 107.6276 15.13953246 77921
RESURS-DK 1             
1 29228U 06021A   25324.86738955  .00002357  00000+0  14319-3 0  9996
2 29228  69.9304 158.3547 0007227 276.8262  83.2081 15.11979388 71079
CZ-4B R/B               
1 29507U 06046C   25324.58712930  .00005169  00000+0  27254-3 0  9993
2 29507  97.5766   4.7872 0032686 286.2173  73.5463 15.15560035 43519
CZ-2C R/B               
1 31114U 07010B   25324.59649981  .00000172  00000+0  98387-4 0  9993
2 31114  98.3970  78.3630 0058000 251.0309 108.4578 14.20196419964232
COSMO-SKYMED 1          
1 31598U 07023A   25324.97807994  .00003332  00000+0  30594-3 0  9991
2 31598  97.8836 150.2378 0001034  86.3255 273.8084 14.95533987998644
COSMOS 2428             
1 31792U 07029A   25324.57860320 -.00000175  00000+0 -68351-4 0  9998
2 31792  70.9370  72.4058 0002492  60.9556 299.1814 14.12887386948681
SL-16 R/B               
1 31793U 07029B   25324.70435500  .00000198  00000+0  12739-3 0  9993
2 31793  70.9778  41.4761 0002238 263.2874 262.1346 14.14815515949958
KORONAS-FOTON           
1 33504U 09003A   25324.21940464  .00012103  00000+0  29681-3 0  9998
2 33504  82.4333  29.4258 0011560 184.1677 175.9474 15.40501821928875
CZ-2C R/B               
1 37731U 11030B   25324.83017881  .00001822  00000+0  23781-3 0  9994
2 37731  97.8379 279.4275 0052736 346.3698  43.2567 14.80790802773984
H-2A R/B                
1 38341U 12025E   25324.87772591  .00003777  00000+0  35188-3 0  9992
2 38341  98.4561 278.4295 0044253 309.9374  49.7959 14.94231398731967
