CCSDS_OMM_VERS = 2.0
CREATION_DATE  = 
ORIGINATOR     = 

OBJECT_NAME    = CZ-2D R/B
OBJECT_ID      = 2005-024B
CENTER_NAME    = EARTH
REF_FRAME      = TEME
TIME_SYSTEM    = UTC
MEAN_ELEMENT_THEORY = SGP/SGP4

EPOCH          = 2025-11-20T19:20:56.677920
MEAN_MOTION    = 15.51735579
ECCENTRICITY   = .00080714
INCLINATION    = 97.3645
RA_OF_ASC_NODE = 331.7028
ARG_OF_PERICENTER = 69.1092
MEAN_ANOMALY   = 291.1024

EPHEMERIS_TYPE = 0
CLASSIFICATION_TYPE = U
NORAD_CAT_ID   = 28738
ELEMENT_SET_NO = 999
REV_AT_EPOCH   = 12285
BSTAR          = .38097931E-3
MEAN_MOTION_DOT = .22667E-3
MEAN_MOTION_DDOT = 0

CCSDS_OMM_VERS = 2.0
CREATION_DATE  = 
ORIGINATOR     = 

OBJECT_NAME    = ALOS (DAICHI)
OBJECT_ID      = 2006-002A
CENTER_NAME    = EARTH
REF_FRAME      = TEME
TIME_SYSTEM    = UTC
MEAN_ELEMENT_THEORY = SGP/SGP4

EPOCH          = 2025-11-20T10:17:12.515712
MEAN_MOTION    = 14.69387232
ECCENTRICITY   = .00007889
INCLINATION    = 98.1058
RA_OF_ASC_NODE = 276.0789
ARG_OF_PERICENTER = 63.9156
MEAN_ANOMALY   = 296.2131

EPHEMERIS_TYPE = 0
CLASSIFICATION_TYPE = U
NORAD_CAT_ID   = 28931
ELEMENT_SET_NO = 999
REV_AT_EPOCH   = 5743
BSTAR          = .28430149E-3
MEAN_MOTION_DOT = .1632E-4
MEAN_MOTION_DDOT = 0

CCSDS_OMM_VERS = 2.0
CREATION_DATE  = 
ORIGINATOR     = 

OBJECT_NAME    = H-2A R/B
OBJECT_ID      = 2006-002B
CENTER_NAME    = EARTH
REF_FRAME      = TEME
TIME_SYSTEM    = UTC
MEAN_ELEMENT_THEORY = SGP/SGP4

EPOCH          = 2025-11-20T15:33:19.342656
MEAN_MOTION    = 15.13953246
ECCENTRICITY   = .00544506
INCLINATION    = 98.2310
RA_OF_ASC_NODE = 97.6058
ARG_OF_PERICENTER = 251.9018
MEAN_ANOMALY   = 107.6276

EPHEMERIS_TYPE = 0
CLASSIFICATION_TYPE = U
NORAD_CAT_ID   = 28932
ELEMENT_SET_NO = 999
REV_AT_EPOCH   = 7792
BSTAR          = .5298527E-3
MEAN_MOTION_DOT = .9891E-4
MEAN_MOTION_DDOT = 0

CCSDS_OMM_VERS = 2.0
CREATION_DATE  = 
ORIGINATOR     = 

OBJECT_NAME    = RESURS-DK 1
OBJECT_ID      = 2006-021A
CENTER_NAME    = EARTH
REF_FRAME      = TEME
TIME_SYSTEM    = UTC
MEAN_ELEMENT_THEORY = SGP/SGP4

EPOCH          = 2025-11-20T20:49:02.457120
MEAN_MOTION    = 15.11979388
ECCENTRICITY   = .00072274
INCLINATION    = 69.9304
RA_OF_ASC_NODE = 158.3547
ARG_OF_PERICENTER = 276.8262
MEAN_ANOMALY   = 83.2081

EPHEMERIS_TYPE = 0
CLASSIFICATION_TYPE = U
NORAD_CAT_ID   = 29228
ELEMENT_SET_NO = 999
REV_AT_EPOCH   = 7107
BSTAR          = .14318636E-3
MEAN_MOTION_DOT = .2357E-4
MEAN_MOTION_DDOT = 0

CCSDS_OMM_VERS = 2.0
CREATION_DATE  = 
ORIGINATOR     = 

OBJECT_NAME    = CZ-4B R/B
OBJECT_ID      = 2006-046C
CENTER_NAME    = EARTH
REF_FRAME      = TEME
TIME_SYSTEM    = UTC
MEAN_ELEMENT_THEORY = SGP/SGP4

EPOCH          = 2025-11-20T14:05:27.971520
MEAN_MOTION    = 15.15560035
ECCENTRICITY   = .00326866
INCLINATION    = 97.5766
RA_OF_ASC_NODE = 4.7872
ARG_OF_PERICENTER = 286.2173
MEAN_ANOMALY   = 73.5463

EPHEMERIS_TYPE = 0
CLASSIFICATION_TYPE = U
NORAD_CAT_ID   = 29507
ELEMENT_SET_NO = 999
REV_AT_EPOCH   = 4351
BSTAR          = .2725416E-3
MEAN_MOTION_DOT = .5169E-4
MEAN_MOTION_DDOT = 0

CCSDS_OMM_VERS = 2.0
CREATION_DATE  = 
ORIGINATOR     = 

OBJECT_NAME    = CZ-2C R/B
OBJECT_ID      = 2007-010B
CENTER_NAME    = EARTH
REF_FRAME      = TEME
TIME_SYSTEM    = UTC
MEAN_ELEMENT_THEORY = SGP/SGP4

EPOCH          = 2025-11-20T14:18:57.583584
MEAN_MOTION    = 14.20196419
ECCENTRICITY   = .00580006
INCLINATION    = 98.3970
RA_OF_ASC_NODE = 78.3630
ARG_OF_PERICENTER = 251.0309
MEAN_ANOMALY   = 108.4578

EPHEMERIS_TYPE = 0
CLASSIFICATION_TYPE = U
NORAD_CAT_ID   = 31114
ELEMENT_SET_NO = 999
REV_AT_EPOCH   = 96423
BSTAR          = .98387436E-4
MEAN_MOTION_DOT = .172E-5
MEAN_MOTION_DDOT = 0

CCSDS_OMM_VERS = 2.0
CREATION_DATE  = 
ORIGINATOR     = 

OBJECT_NAME    = COSMO-SKYMED 1
OBJECT_ID      = 2007-023A
CENTER_NAME    = EARTH
REF_FRAME      = TEME
TIME_SYSTEM    = UTC
MEAN_ELEMENT_THEORY = SGP/SGP4

EPOCH          = 2025-11-20T23:28:26.106816
MEAN_MOTION    = 14.95533987
ECCENTRICITY   = .00010347
INCLINATION    = 97.8836
RA_OF_ASC_NODE = 150.2378
ARG_OF_PERICENTER = 86.3255
MEAN_ANOMALY   = 273.8084

EPHEMERIS_TYPE = 0
CLASSIFICATION_TYPE = U
NORAD_CAT_ID   = 31598
ELEMENT_SET_NO = 999
REV_AT_EPOCH   = 99864
BSTAR          = .30594438E-3
MEAN_MOTION_DOT = .3332E-4
MEAN_MOTION_DDOT = 0

CCSDS_OMM_VERS = 2.0
CREATION_DATE  = 
ORIGINATOR     = 

OBJECT_NAME    = COSMOS 2428
OBJECT_ID      = 2007-029A
CENTER_NAME    = EARTH
REF_FRAME      = TEME
TIME_SYSTEM    = UTC
MEAN_ELEMENT_THEORY = SGP/SGP4

EPOCH          = 2025-11-20T13:53:11.316480
MEAN_MOTION    = 14.12887386
ECCENTRICITY   = .00024927
INCLINATION    = 70.9370
RA_OF_ASC_NODE = 72.4058
ARG_OF_PERICENTER = 60.9556
MEAN_ANOMALY   = 299.1814

EPHEMERIS_TYPE = 0
CLASSIFICATION_TYPE = U
NORAD_CAT_ID   = 31792
ELEMENT_SET_NO = 999
REV_AT_EPOCH   = 94868
BSTAR          = -.68351164E-4
MEAN_MOTION_DOT = -.175E-5
MEAN_MOTION_DDOT = 0

CCSDS_OMM_VERS = 2.0
CREATION_DATE  = 
ORIGINATOR     = 

OBJECT_NAME    = SL-16 R/B
OBJECT_ID      = 2007-029B
CENTER_NAME    = EARTH
REF_FRAME      = TEME
TIME_SYSTEM    = UTC
MEAN_ELEMENT_THEORY = SGP/SGP4

EPOCH          = 2025-11-20T16:54:16.272000
MEAN_MOTION    = 14.14815515
ECCENTRICITY   = .00022389
INCLINATION    = 70.9778
RA_OF_ASC_NODE = 41.4761
ARG_OF_PERICENTER = 263.2874
MEAN_ANOMALY   = 262.1346

EPHEMERIS_TYPE = 0
CLASSIFICATION_TYPE = U
NORAD_CAT_ID   = 31793
ELEMENT_SET_NO = 999
REV_AT_EPOCH   = 94995
BSTAR          = .12738846E-3
MEAN_MOTION_DOT = .198E-5
MEAN_MOTION_DDOT = 0

CCSDS_OMM_VERS = 2.0
CREATION_DATE  = 
ORIGINATOR     = 

OBJECT_NAME    = KORONAS-FOTON
OBJECT_ID      = 2009-003A
CENTER_NAME    = EARTH
REF_FRAME      = TEME
TIME_SYSTEM    = UTC
MEAN_ELEMENT_THEORY = SGP/SGP4

EPOCH          = 2025-11-20T05:15:56.560896
MEAN_MOTION    = 15.40501821
ECCENTRICITY   = .001156
INCLINATION    = 82.4333
RA_OF_ASC_NODE = 29.4258
ARG_OF_PERICENTER = 184.1677
MEAN_ANOMALY   = 175.9474

EPHEMERIS_TYPE = 0
CLASSIFICATION_TYPE = U
NORAD_CAT_ID   = 33504
ELEMENT_SET_NO = 999
REV_AT_EPOCH   = 92887
BSTAR          = .29681E-3
MEAN_MOTION_DOT = .12103E-3
MEAN_MOTION_DDOT = 0

CCSDS_OMM_VERS = 2.0
CREATION_DATE  = 
ORIGINATOR     = 

OBJECT_NAME    = CZ-2C R/B
OBJECT_ID      = 2011-030B
CENTER_NAME    = EARTH
REF_FRAME      = TEME
TIME_SYSTEM    = UTC
MEAN_ELEMENT_THEORY = SGP/SGP4

EPOCH          = 2025-11-20T19:55:27.449184
MEAN_MOTION    = 14.80790802
ECCENTRICITY   = .00527365
INCLINATION    = 97.8379
RA_OF_ASC_NODE = 279.4275
ARG_OF_PERICENTER = 346.3698
MEAN_ANOMALY   = 43.2567

EPHEMERIS_TYPE = 0
CLASSIFICATION_TYPE = U
NORAD_CAT_ID   = 37731
ELEMENT_SET_NO = 999
REV_AT_EPOCH   = 77398
BSTAR          = .23781375E-3
MEAN_MOTION_DOT = .1822E-4
MEAN_MOTION_DDOT = 0

CCSDS_OMM_VERS = 2.0
CREATION_DATE  = 
ORIGINATOR     = 

OBJECT_NAME    = H-2A R/B
OBJECT_ID      = 2012-025E
CENTER_NAME    = EARTH
REF_FRAME      = TEME
TIME_SYSTEM    = UTC
MEAN_ELEMENT_THEORY = SGP/SGP4

EPOCH          = 2025-11-20T21:03:55.518624
MEAN_MOTION    = 14.94231398
ECCENTRICITY   = .00442533
INCLINATION    = 98.4561
RA_OF_ASC_NODE = 278.4295
ARG_OF_PERICENTER = 309.9374
MEAN_ANOMALY   = 49.7959

EPHEMERIS_TYPE = 0
CLASSIFICATION_TYPE = U
NORAD_CAT_ID   = 38341
ELEMENT_SET_NO = 999
REV_AT_EPOCH   = 73196
BSTAR          = .35188135E-3
MEAN_MOTION_DOT = .3777E-4
MEAN_MOTION_DDOT = 0

